CALSPHERE 1             
1 00900U 64063C   22234.81919316  .00000349  00000+0  36188-3 0  9993
2 00900  90.1751  42.1186 0027307 178.0892 290.7683 13.73869445879773
CALSPHERE 2             
1 00902U 64063E   22234.72023383  .00000038  00000+0  44323-4 0  9991
2 00902  90.1874  45.2414 0017037 320.3980  52.8809 13.52720240667732
LCS 1                   
1 01361U 65034C   22234.76345253  .00000027  00000+0  24389-2 0  9993
2 01361  32.1372 247.8585 0012592 112.6959 247.4870  9.89302015 71795
TEMPSAT 1               
1 01512U 65065E   22234.80810457  .00000040  00000+0  61932-4 0  9995
2 01512  89.9140 218.1057 0069125 202.7439 274.4734 13.33453649774219
CALSPHERE 4A            
1 01520U 65065H   22235.48431297  .00000067  00000+0  11109-3 0  9999
2 01520  89.9911 130.1256 0071346  74.4770  98.7503 13.35899938777017
OPS 5712 (P/L 160)      
1 02826U 67053A   22235.13909453  .00001181  00000+0  31487-3 0  9993
2 02826  69.9273 132.6262 0007870 264.4217  95.6020 14.50852227862909
OPS 5712 (P/L 153)      
1 02874U 67053H   22235.40022501  .00000007  00000+0  43330-4 0  9993
2 02874  69.9717 221.7449 0008875 222.6962 137.3455 13.96413621812654
SURCAL 150B             
1 02909U 67053J   22235.33648264  .00001564  00000+0  30802-3 0  9992
2 02909  69.9468 118.3071 0005632 284.2293  75.8223 14.64465420873901
RIGIDSPHERE 2 (LCS 4)   
1 05398U 71067E   22235.45753922  .00000300  00000+0  98152-4 0  9998
2 05398  87.6274   4.5030 0063966 162.4588 197.8840 14.34293447674091
COSMOS 2493 (SKRL-756 1)
1 39490U 13078A   22235.49380048  .00000656  00000+0  66097-4 0  9992
2 39490  82.4206 169.9376 0015576 231.4984 128.4838 14.89571399470006
COSMOS 2494 (SKRL-756 2)
1 39491U 13078B   22235.53765735  .00000669  00000+0  64828-4 0  9992
2 39491  82.4205 163.5312 0020599 206.1247 153.8935 14.91030736470332
